[{"OBJECT_NAME":"STARLINK-4091","OBJECT_ID":"2022-062A","EPOCH":"2026-03-09T07:40:10.882560","MEAN_MOTION":15.0884049,"ECCENTRICITY":0.00015244,"INCLINATION":53.2163,"RA_OF_ASC_NODE":35.9739,"ARG_OF_PERICENTER":91.0813,"MEAN_ANOMALY":269.0354,"EPHEMERIS_TYPE":0,"CLASSIFICATION_TYPE":"U","NORAD_CAT_ID":52830,"ELEMENT_SET_NO":999,"REV_AT_EPOCH":20572,"BSTAR":-8.4084812e-5,"MEAN_MOTION_DOT":-1.626e-5,"MEAN_MOTION_DDOT":0},{"OBJECT_NAME":"LEMUR-2-AHMED-ASRAR","OBJECT_ID":"2024-149DN","EPOCH":"2026-03-09T17:35:01.338432","MEAN_MOTION":15.10376432,"ECCENTRICITY":0.00016334,"INCLINATION":97.7021,"RA_OF_ASC_NODE":152.9847,"ARG_OF_PERICENTER":18.5035,"MEAN_ANOMALY":341.6253,"EPHEMERIS_TYPE":0,"CLASSIFICATION_TYPE":"U","NORAD_CAT_ID":60576,"ELEMENT_SET_NO":999,"REV_AT_EPOCH":8554,"BSTAR":0.0007977347,"MEAN_MOTION_DOT":0.00013045,"MEAN_MOTION_DDOT":0}]
